
# Worst residual: 6.23 km
# MJD 59889.000000 (2022 Nov  6  0:00)
1964-040A = NORAD 00836 = Vela 2A
1 00836U 64040A   22310.49919926  .00000000  00000-0  00000-0 0 16941
2 00836 040.1051 149.7962 6732229 315.8441 183.0553 00.23924432    09

# Worst residual: 5.19 km
# MJD 59890.000000 (2022 Nov  7  0:00)
1964-040A = NORAD 00836 = Vela 2A
1 00836U 64040A   22311.49919926  .00000000  00000-0  00000-0 0 16942
2 00836 040.1422 149.7374 6734222 315.8764 269.2827 00.23938000    08

# Worst residual: 33.15 km
# MJD 59891.000000 (2022 Nov  8  0:00)
1964-040A = NORAD 00836 = Vela 2A
1 00836U 64040A   22312.49919926  .00000000  00000-0  00000-0 0 16943
2 00836 040.1626 149.7011 6722106 315.8767 355.4552 00.23985551    09

# Worst residual: 18.37 km
# MJD 59892.000000 (2022 Nov  9  0:00)
1964-040A = NORAD 00836 = Vela 2A
1 00836U 64040A   22313.49919926  .00000000  00000-0  00000-0 0 16944
2 00836 040.1822 149.6427 6728432 315.8384 081.6545 00.23944429    09

# Worst residual: 4.08 km
# MJD 59893.000000 (2022 Nov 10  0:00)
1964-040A = NORAD 00836 = Vela 2A
1 00836U 64040A   22314.49919926  .00000000  00000-0  00000-0 0 16945
2 00836 040.2131 149.5770 6725013 315.9380 167.6153 00.23916955    05

# Worst residual: 4.14 km
# MJD 59894.000000 (2022 Nov 11  0:00)
1964-040A = NORAD 00836 = Vela 2A
1 00836U 64040A   22315.49919926  .00000000  00000-0  00000-0 0 16946
2 00836 040.2282 149.5426 6723160 315.9735 253.6828 00.23925888    05

# Worst residual: 24.44 km
# MJD 59895.000000 (2022 Nov 12  0:00)
1964-040A = NORAD 00836 = Vela 2A
1 00836U 64040A   22316.49919926  .00000000  00000-0  00000-0 0 16947
2 00836 040.2604 149.5069 6716750 316.0005 339.8177 00.23951502    01

# Worst residual: 7.09 km
# MJD 59896.000000 (2022 Nov 13  0:00)
1964-040A = NORAD 00836 = Vela 2A
1 00836U 64040A   22317.49919926  .00000000  00000-0  00000-0 0 16948
2 00836 040.2631 149.4702 6715899 315.9995 065.9925 00.23915692    01

# Worst residual: 2.41 km
# MJD 59897.000000 (2022 Nov 14  0:00)
1964-040A = NORAD 00836 = Vela 2A
1 00836U 64040A   22318.49919926  .00000000  00000-0  00000-0 0 16949
2 00836 040.2829 149.4288 6711225 316.0235 152.1019 00.23909213    02

# Worst residual: 5.30 km
# MJD 59898.000000 (2022 Nov 15  0:00)
1964-040A = NORAD 00836 = Vela 2A
1 00836U 64040A   22319.49919926  .00000000  00000-0  00000-0 0 16940
2 00836 040.2862 149.4121 6711560 316.0319 238.1924 00.23920457    03

# Worst residual: 15.35 km
# MJD 59899.000000 (2022 Nov 16  0:00)
1964-040A = NORAD 00836 = Vela 2A
1 00836U 64040A   22320.49919926  .00000000  00000-0  00000-0 0 16942
2 00836 040.3103 149.3745 6705422 316.0961 324.2462 00.23960642    00

# Worst residual: 6.77 km
# MJD 59900.000000 (2022 Nov 17  0:00)
1964-040A = NORAD 00836 = Vela 2A
1 00836U 64040A   22321.49919926  .00000000  00000-0  00000-0 0 16943
2 00836 040.3287 149.3471 6705337 316.0832 050.4220 00.23897709    04

# Worst residual: 4.81 km
# MJD 59901.000000 (2022 Nov 18  0:00)
1964-040A = NORAD 00836 = Vela 2A
1 00836U 64040A   22322.49919926  .00000000  00000-0  00000-0 0 16944
2 00836 040.3479 149.3146 6698138 316.0701 136.6290 00.23908694    01

# Worst residual: 2.21 km
# MJD 59902.000000 (2022 Nov 19  0:00)
1964-040A = NORAD 00836 = Vela 2A
1 00836U 64040A   22323.49919926  .00000000  00000-0  00000-0 0 16945
2 00836 040.3639 149.2825 6695117 316.0608 222.8017 00.23912496    02

# Worst residual: 24.32 km
# MJD 59903.000000 (2022 Nov 20  0:00)
1964-040A = NORAD 00836 = Vela 2A
1 00836U 64040A   22324.49919926  .00000000  00000-0  00000-0 0 16946
2 00836 040.3846 149.2437 6689260 316.1411 308.7815 00.23952900    00

# Worst residual: 33.05 km
# MJD 59904.000000 (2022 Nov 21  0:00)
1964-040A = NORAD 00836 = Vela 2A
1 00836U 64040A   22325.49919926  .00000000  00000-0  00000-0 0 16947
2 00836 040.4064 149.2097 6678959 316.0307 035.0880 00.23979968    06

# Worst residual: 3.93 km
# MJD 59905.000000 (2022 Nov 22  0:00)
1964-040A = NORAD 00836 = Vela 2A
1 00836U 64040A   22326.49919926  .00000000  00000-0  00000-0 0 16948
2 00836 040.4320 149.1454 6682889 316.0781 121.1780 00.23939175    02

# Worst residual: 3.08 km
# MJD 59906.000000 (2022 Nov 23  0:00)
1964-040A = NORAD 00836 = Vela 2A
1 00836U 64040A   22327.49919926  .00000000  00000-0  00000-0 0 16949
2 00836 040.4337 149.1376 6675994 316.0694 207.3811 00.23931237    08

# Worst residual: 8.51 km
# MJD 59907.000000 (2022 Nov 24  0:00)
1964-040A = NORAD 00836 = Vela 2A
1 00836U 64040A   22328.49919926  .00000000  00000-0  00000-0 0 16940
2 00836 040.4178 149.1257 6672494 316.0784 293.5467 00.23942054    04

# Worst residual: 31.72 km
# MJD 59908.000000 (2022 Nov 25  0:00)
1964-040A = NORAD 00836 = Vela 2A
1 00836U 64040A   22329.49919926  .00000000  00000-0  00000-0 0 16941
2 00836 040.4239 149.1107 6662399 315.9945 019.7893 00.23962430    07

# Worst residual: 4.17 km
# MJD 59909.000000 (2022 Nov 26  0:00)
1964-040A = NORAD 00836 = Vela 2A
1 00836U 64040A   22330.49919926  .00000000  00000-0  00000-0 0 16943
2 00836 040.4412 149.0450 6664112 316.0231 105.9153 00.23929858    09

# Worst residual: 3.68 km
# MJD 59910.000000 (2022 Nov 27  0:00)
1964-040A = NORAD 00836 = Vela 2A
1 00836U 64040A   22331.49919926  .00000000  00000-0  00000-0 0 16944
2 00836 040.4658 149.0004 6656913 316.0390 192.1102 00.23921951    00

# Worst residual: 15.89 km
# MJD 59911.000000 (2022 Nov 28  0:00)
1964-040A = NORAD 00836 = Vela 2A
1 00836U 64040A   22332.49919926  .00000000  00000-0  00000-0 0 16945
2 00836 040.5549 148.9051 6648875 316.1029 278.1881 00.23925650    07

# Worst residual: 18.93 km
# MJD 59912.000000 (2022 Nov 29  0:00)
1964-040A = NORAD 00836 = Vela 2A
1 00836U 64040A   22333.49919926  .00000000  00000-0  00000-0 0 16946
2 00836 040.6177 148.8751 6638329 316.0685 004.3201 00.23937396    06

# Worst residual: 7.65 km
# MJD 59913.000000 (2022 Nov 30  0:00)
1964-040A = NORAD 00836 = Vela 2A
1 00836U 64040A   22334.49919926  .00000000  00000-0  00000-0 0 16947
2 00836 040.6368 148.8458 6637800 316.0872 090.4055 00.23899472    08

# Worst residual: 7.05 km
# MJD 59914.000000 (2022 Dec  1  0:00)
1964-040A = NORAD 00836 = Vela 2A
1 00836U 64040A   22335.49919926  .00000000  00000-0  00000-0 0 16948
2 00836 040.6538 148.8160 6640268 316.0020 176.7705 00.23932067    02

# Worst residual: 4.28 km
# MJD 59915.000000 (2022 Dec  2  0:00)
1964-040A = NORAD 00836 = Vela 2A
1 00836U 64040A   22336.49919926  .00000000  00000-0  00000-0 0 16949
2 00836 040.6720 148.7774 6640279 315.9938 263.0668 00.23938850    07

# Worst residual: 27.73 km
# MJD 59916.000000 (2022 Dec  3  0:00)
1964-040A = NORAD 00836 = Vela 2A
1 00836U 64040A   22337.49919926  .00000000  00000-0  00000-0 0 16940
2 00836 040.6819 148.7417 6625297 315.9712 349.2083 00.23977365    05
